{
  "60732": {
    "noradId": "60732",
    "tle": [
      "1 60732C 24152N   26099.87687500 -.00047776  00000+0 -39353-3 0   998",
      "2 60732  53.1567 322.1394 0000987  92.2068  75.9778 15.69734658    10"
    ]
  },
  "60733": {
    "noradId": "60733",
    "tle": [
      "1 60733C 24152P   26099.92201389  .00036591  00000+0  12334-2 0   992",
      "2 60733  53.1594 123.2728 0001224  91.4584 270.2349 15.30169181    16"
    ]
  },
  "60734": {
    "noradId": "60734",
    "tle": [
      "1 60734C 24152Q   26099.86090278  .00029328  00000+0  98810-3 0   993",
      "2 60734  53.1576 124.0298 0001450  89.9007  62.2046 15.30188732    17"
    ]
  },
  "60737": {
    "noradId": "60737",
    "tle": [
      "1 60737C 24152T   26099.93451389  .00057257  00000+0  19303-2 0   999",
      "2 60737  53.1572 123.5471 0001226 104.1036 163.6897 15.30153718    12"
    ]
  },
  "60738": {
    "noradId": "60738",
    "tle": [
      "1 60738C 24152U   26099.94354167  .00031721  00000+0  10693-2 0   998",
      "2 60738  53.1573 123.4702 0001069  80.0660 254.8663 15.30171276    13"
    ]
  },
  "60739": {
    "noradId": "60739",
    "tle": [
      "1 60739C 24152V   26099.86506944  .00009204  00000+0  31028-3 0   999",
      "2 60739  53.1582 123.7994 0001201  89.8737 189.9860 15.30179201    13"
    ]
  },
  "60740": {
    "noradId": "60740",
    "tle": [
      "1 60740C 24152W   26099.90534722  .00022923  00000+0  77267-3 0   999",
      "2 60740  53.1584 123.5771 0001139  92.1866  67.1196 15.30176845    18"
    ]
  },
  "60903": {
    "noradId": "60903",
    "tle": [
      "1 60903C 24154A   26099.95118056 -.00024557  00000+0 -20232-3 0   992",
      "2 60903  53.1574 336.9015 0000978  71.8278  80.2491 15.69717193    13"
    ]
  },
  "60904": {
    "noradId": "60904",
    "tle": [
      "1 60904C 24154B   26099.89493056  .00021216  00000+0  17530-3 0   996",
      "2 60904  53.1572 337.1221 0000048 329.8845 251.9518 15.69625185    14"
    ]
  },
  "60905": {
    "noradId": "60905",
    "tle": [
      "1 60905C 24154C   26099.88381944 -.00025796  00000+0 -21251-3 0   992",
      "2 60905  53.1569 337.7990 0001028  86.7680 127.0721 15.69719481    17"
    ]
  },
  "60906": {
    "noradId": "60906",
    "tle": [
      "1 60906C 24154D   26099.91159722 -.00009493  00000+0 -78217-4 0   995",
      "2 60906  53.1568 337.6050 0000948  75.9939 322.6386 15.69707181    14"
    ]
  },
  "60907": {
    "noradId": "60907",
    "tle": [
      "1 60907C 24154E   26099.90048611 -.00059213  00000+0 -48783-3 0   998",
      "2 60907  53.1566 337.6023 0000999  75.5753 287.9652 15.69735370    19"
    ]
  },
  "60908": {
    "noradId": "60908",
    "tle": [
      "1 60908C 24154F   26099.90951389 -.00056456  00000+0 -46506-3 0   991",
      "2 60908  53.1567 337.5009 0000960  92.4721 349.8550 15.69737316    12"
    ]
  },
  "60909": {
    "noradId": "60909",
    "tle": [
      "1 60909C 24154G   26099.86229167 -.00023833  00000+0 -19634-3 0   994",
      "2 60909  53.1570 337.9597 0000746 105.8744 318.4936 15.69718726    13"
    ]
  },
  "60910": {
    "noradId": "60910",
    "tle": [
      "1 60910C 24154H   26099.95743056 -.00030505  00000+0 -25132-3 0   998",
      "2 60910  53.1570 337.2074 0001084  65.4415 315.5513 15.69720723    19"
    ]
  },
  "60911": {
    "noradId": "60911",
    "tle": [
      "1 60911C 24154J   26099.94006944 -.00169210  00000+0 -13923-2 0   996",
      "2 60911  53.1567 337.2366 0001373 105.7405 204.7654 15.69819517    13"
    ]
  },
  "60912": {
    "noradId": "60912",
    "tle": [
      "1 60912C 24154K   26099.95673611 -.00058283  00000+0 -48002-3 0   993",
      "2 60912  53.1569 337.0975 0000990  81.5276 351.0066 15.69742258    11"
    ]
  },
  "60913": {
    "noradId": "60913",
    "tle": [
      "1 60913C 24154L   26099.90673611 -.00029308  00000+0 -24137-3 0   998",
      "2 60913  53.1569 337.2863 0001095  67.1334 110.4336 15.69728478    17"
    ]
  },
  "60915": {
    "noradId": "60915",
    "tle": [
      "1 60915C 24154N   26099.94076389 -.00021131  00000+0 -17406-3 0   990",
      "2 60915  53.1572 337.0041 0001014 100.2841 325.1504 15.69720490    10"
    ]
  },
  "60916": {
    "noradId": "60916",
    "tle": [
      "1 60916C 24154P   26099.84909722 -.00026476  00000+0 -89245-3 0   993",
      "2 60916  53.1591 139.1090 0001231  85.2658 344.1804 15.30201067    12"
    ]
  },
  "60917": {
    "noradId": "60917",
    "tle": [
      "1 60917C 24154Q   26099.85743056 -.00003622  00000+0 -12207-3 0   993",
      "2 60917  53.1582 138.8693 0001607  85.9237 134.1406 15.30190437    18"
    ]
  },
  "60918": {
    "noradId": "60918",
    "tle": [
      "1 60918C 24154R   26099.94562500  .00045201  00000+0  15238-2 0   990",
      "2 60918  53.1574 138.9402 0001064  91.8235  10.0630 15.30161100    16"
    ]
  },
  "60919": {
    "noradId": "60919",
    "tle": [
      "1 60919C 24154S   26099.88798611 -.00002773  00000+0 -93488-4 0   992",
      "2 60919  53.1573 138.5997 0001204  90.2339   2.2382 15.30187864    17"
    ]
  },
  "60920": {
    "noradId": "60920",
    "tle": [
      "1 60920C 24154T   26099.87479167  .00000965  00000+0  32533-4 0   998",
      "2 60920  53.1573 139.2784 0001145  84.8444 340.8179 15.30184977    18"
    ]
  },
  "60921": {
    "noradId": "60921",
    "tle": [
      "1 60921C 24154U   26099.93659722  .00023860  00000+0  80481-3 0   996",
      "2 60921  53.1587 138.5980 0001181  90.9334 153.2700 15.30153365    13"
    ]
  },
  "60922": {
    "noradId": "60922",
    "tle": [
      "1 60922C 24154V   26099.94215278  .00032019  00000+0  10792-2 0   995",
      "2 60922  53.1587 138.7570 0001194  88.0580  93.5793 15.30173871    18"
    ]
  },
  "60923": {
    "noradId": "60923",
    "tle": [
      "1 60923C 24154W   26099.89423611 -.00019387  00000+0 -65350-3 0   998",
      "2 60923  53.1581 139.0825 0001217  89.1324 136.0525 15.30196925    15"
    ]
  },
  "60924": {
    "noradId": "60924",
    "tle": [
      "1 60924C 24155A   26099.88451389 -.00027063  00000+0 -22289-3 0   996",
      "2 60924  53.1570 187.8348 0001208  82.6004  38.2057 15.69726504    15"
    ]
  },
  "60925": {
    "noradId": "60925",
    "tle": [
      "1 60925C 24155B   26099.95534722 -.00054166  00000+0 -44622-3 0   997",
      "2 60925  53.1574 187.3157 0001097  82.2366 162.2761 15.69734785    16"
    ]
  },
  "60926": {
    "noradId": "60926",
    "tle": [
      "1 60926C 24155C   26099.90534722 -.00056676  00000+0 -46676-3 0   992",
      "2 60926  53.1568 187.4483 0001349  67.3744 309.9036 15.69742596    11"
    ]
  },
  "60927": {
    "noradId": "60927",
    "tle": [
      "1 60927C 24155D   26099.88937500 -.00033242  00000+0 -27385-3 0   991",
      "2 60927  53.1570 187.5842 0001067  81.3539 177.8792 15.69723919    19"
    ]
  },
  "60928": {
    "noradId": "60928",
    "tle": [
      "1 60928C 24155E   26099.89909722  .00004777  00000+0  39349-4 0   991",
      "2 60928  53.1570 187.4217 0001221  81.5867 288.0851 15.69708263    19"
    ]
  },
  "60929": {
    "noradId": "60929",
    "tle": [
      "1 60929C 24155F   26099.89562500  .00001801  00000+0  14831-4 0   995",
      "2 60929  53.1569 187.3816 0001084  79.6186 298.1631 15.69709899    15"
    ]
  },
  "60930": {
    "noradId": "60930",
    "tle": [
      "1 60930C 24155G   26099.87548611 -.00021379  00000+0 -17606-3 0   998",
      "2 60930  53.1569 187.4239 0001081  84.5010 207.1463 15.69726284    15"
    ]
  },
  "60931": {
    "noradId": "60931",
    "tle": [
      "1 60931C 24155H   26099.93798611 -.00055420  00000+0 -45642-3 0   998",
      "2 60931  53.1566 187.0587 0001260  79.3398 233.4330 15.69741438    18"
    ]
  },
  "60932": {
    "noradId": "60932",
    "tle": [
      "1 60932C 24155J   26099.89493056 -.00049503  00000+0 -40764-3 0   994",
      "2 60932  53.1564 187.2142 0001139  85.6677  11.3928 15.69741940    15"
    ]
  },
  "60933": {
    "noradId": "60933",
    "tle": [
      "1 60933C 24155K   26099.94076389 -.00040419  00000+0 -33306-3 0   998",
      "2 60933  53.1563 186.9307 0001057  79.6761 304.2879 15.69721419    18"
    ]
  },
  "60934": {
    "noradId": "60934",
    "tle": [
      "1 60934C 24155L   26099.87965278 -.00019847  00000+0 -16343-3 0   998",
      "2 60934  53.1564 187.1750 0001050  80.5531 345.6051 15.69727275    11"
    ]
  },
  "60935": {
    "noradId": "60935",
    "tle": [
      "1 60935C 24155M   26099.88034722 -.00023456  00000+0 -19315-3 0   994",
      "2 60935  53.1571 187.7930 0001214  86.2039  38.7777 15.69729212    12"
    ]
  },
  "60936": {
    "noradId": "60936",
    "tle": [
      "1 60936C 24155N   26099.85326389  .00037054  00000+0  30518-3 0   990",
      "2 60936  53.1567 187.8701 0001291  44.9997 314.4829 15.69694399    13"
    ]
  },
  "60937": {
    "noradId": "60937",
    "tle": [
      "1 60937C 24155P   26099.89215278 -.00052349  00000+0 -17644-2 0   999",
      "2 60937  53.1606 344.9050 0001511  91.7784 344.9447 15.30217485    19"
    ]
  },
  "60938": {
    "noradId": "60938",
    "tle": [
      "1 60938C 24155Q   26099.87895833  .00059954  00000+0  56088-3 0   992",
      "2 60938  53.1475 320.1089 0007126 194.0027 314.1960 15.66536547    18"
    ]
  },
  "60939": {
    "noradId": "60939",
    "tle": [
      "1 60939C 24155R   26099.82340278 -.00026494  00000+0 -89304-3 0   998",
      "2 60939  53.1607 345.0721 0001187  80.4780  52.9410 15.30201588    12"
    ]
  },
  "60940": {
    "noradId": "60940",
    "tle": [
      "1 60940C 24155S   26099.95118056 -.00017860  00000+0 -60193-3 0   993",
      "2 60940  53.1608 344.5489 0001536  76.9597   5.8428 15.30200037    18"
    ]
  },
  "60941": {
    "noradId": "60941",
    "tle": [
      "1 60941C 24155T   26099.85326389 -.00006240  00000+0 -21051-3 0   993",
      "2 60941  53.1608 344.9671 0001488  72.6032 208.0038 15.30165648    11"
    ]
  }
}